[{"OBJECT_NAME":"STARLINK-31461","OBJECT_ID":"2024-060Y","EPOCH":"2026-03-16T17:20:16.014048","MEAN_MOTION":15.27551177,"ECCENTRICITY":5.43e-5,"INCLINATION":42.9981,"RA_OF_ASC_NODE":209.2999,"ARG_OF_PERICENTER":268.5485,"MEAN_ANOMALY":91.5305,"EPHEMERIS_TYPE":0,"CLASSIFICATION_TYPE":"U","NORAD_CAT_ID":59370,"ELEMENT_SET_NO":999,"REV_AT_EPOCH":11120,"BSTAR":-8.2141e-5,"MEAN_MOTION_DOT":-2.519e-5,"MEAN_MOTION_DDOT":0},{"OBJECT_NAME":"STARLINK-31641","OBJECT_ID":"2024-062A","EPOCH":"2026-03-15T17:07:26.262624","MEAN_MOTION":15.30186123,"ECCENTRICITY":0.0001089,"INCLINATION":53.1609,"RA_OF_ASC_NODE":230.5311,"ARG_OF_PERICENTER":82.432,"MEAN_ANOMALY":277.6805,"EPHEMERIS_TYPE":0,"CLASSIFICATION_TYPE":"U","NORAD_CAT_ID":59374,"ELEMENT_SET_NO":999,"REV_AT_EPOCH":11054,"BSTAR":-2.0354532e-5,"MEAN_MOTION_DOT":-9.61e-6,"MEAN_MOTION_DDOT":0},{"OBJECT_NAME":"STARLINK-31430","OBJECT_ID":"2024-062B","EPOCH":"2026-03-16T16:27:35.576352","MEAN_MOTION":15.30181838,"ECCENTRICITY":0.0001168,"INCLINATION":53.1604,"RA_OF_ASC_NODE":225.9303,"ARG_OF_PERICENTER":79.3516,"MEAN_ANOMALY":280.7616,"EPHEMERIS_TYPE":0,"CLASSIFICATION_TYPE":"U","NORAD_CAT_ID":59375,"ELEMENT_SET_NO":999,"REV_AT_EPOCH":11070,"BSTAR":-3.7989e-5,"MEAN_MOTION_DOT":-1.483e-5,"MEAN_MOTION_DDOT":0},{"OBJECT_NAME":"STARLINK-31695","OBJECT_ID":"2024-062C","EPOCH":"2026-03-16T19:46:55.320960","MEAN_MOTION":15.30201639,"ECCENTRICITY":0.0001092,"INCLINATION":53.1608,"RA_OF_ASC_NODE":222.5311,"ARG_OF_PERICENTER":74.7625,"MEAN_ANOMALY":285.3496,"EPHEMERIS_TYPE":0,"CLASSIFICATION_TYPE":"U","NORAD_CAT_ID":59376,"ELEMENT_SET_NO":999,"REV_AT_EPOCH":11072,"BSTAR":3.3261e-5,"MEAN_MOTION_DOT":6.26e-6,"MEAN_MOTION_DDOT":0},{"OBJECT_NAME":"STARLINK-31716","OBJECT_ID":"2024-062D","EPOCH":"2026-03-16T15:50:57.894720","MEAN_MOTION":15.30194413,"ECCENTRICITY":0.0001181,"INCLINATION":53.16,"RA_OF_ASC_NODE":174.6379,"ARG_OF_PERICENTER":104.2452,"MEAN_ANOMALY":255.868,"EPHEMERIS_TYPE":0,"CLASSIFICATION_TYPE":"U","NORAD_CAT_ID":59377,"ELEMENT_SET_NO":999,"REV_AT_EPOCH":11137,"BSTAR":2.4468e-5,"MEAN_MOTION_DOT":3.65e-6,"MEAN_MOTION_DDOT":0},{"OBJECT_NAME":"STARLINK-31710","OBJECT_ID":"2024-062E","EPOCH":"2026-03-16T16:54:01.414656","MEAN_MOTION":15.30183669,"ECCENTRICITY":9.75e-5,"INCLINATION":53.1605,"RA_OF_ASC_NODE":223.2024,"ARG_OF_PERICENTER":87.0238,"MEAN_ANOMALY":273.0875,"EPHEMERIS_TYPE":0,"CLASSIFICATION_TYPE":"U","NORAD_CAT_ID":59378,"ELEMENT_SET_NO":999,"REV_AT_EPOCH":11070,"BSTAR":-7.5488e-5,"MEAN_MOTION_DOT":-2.593e-5,"MEAN_MOTION_DDOT":0},{"OBJECT_NAME":"STARLINK-31698","OBJECT_ID":"2024-062F","EPOCH":"2026-03-16T19:42:22.129344","MEAN_MOTION":15.30195906,"ECCENTRICITY":0.0001095,"INCLINATION":53.1617,"RA_OF_ASC_NODE":222.5235,"ARG_OF_PERICENTER":71.9868,"MEAN_ANOMALY":288.1252,"EPHEMERIS_TYPE":0,"CLASSIFICATION_TYPE":"U","NORAD_CAT_ID":59379,"ELEMENT_SET_NO":999,"REV_AT_EPOCH":11072,"BSTAR":3.6969e-5,"MEAN_MOTION_DOT":7.36e-6,"MEAN_MOTION_DDOT":0},{"OBJECT_NAME":"STARLINK-31680","OBJECT_ID":"2024-062G","EPOCH":"2026-03-16T16:36:42.032160","MEAN_MOTION":15.30199353,"ECCENTRICITY":9.28e-5,"INCLINATION":53.1612,"RA_OF_ASC_NODE":225.9677,"ARG_OF_PERICENTER":69.659,"MEAN_ANOMALY":290.4511,"EPHEMERIS_TYPE":0,"CLASSIFICATION_TYPE":"U","NORAD_CAT_ID":59380,"ELEMENT_SET_NO":999,"REV_AT_EPOCH":11066,"BSTAR":1.426e-5,"MEAN_MOTION_DOT":6.3e-7,"MEAN_MOTION_DDOT":0},{"OBJECT_NAME":"STARLINK-31713","OBJECT_ID":"2024-062H","EPOCH":"2026-03-16T16:18:27.921312","MEAN_MOTION":15.30199234,"ECCENTRICITY":0.0001034,"INCLINATION":53.1597,"RA_OF_ASC_NODE":225.8919,"ARG_OF_PERICENTER":82.264,"MEAN_ANOMALY":277.8478,"EPHEMERIS_TYPE":0,"CLASSIFICATION_TYPE":"U","NORAD_CAT_ID":59381,"ELEMENT_SET_NO":999,"REV_AT_EPOCH":11066,"BSTAR":-5.6686e-6,"MEAN_MOTION_DOT":-5.27e-6,"MEAN_MOTION_DDOT":0},{"OBJECT_NAME":"STARLINK-31705","OBJECT_ID":"2024-062J","EPOCH":"2026-03-16T19:57:33.939648","MEAN_MOTION":15.3019207,"ECCENTRICITY":9.68e-5,"INCLINATION":53.1589,"RA_OF_ASC_NODE":222.5755,"ARG_OF_PERICENTER":99.6304,"MEAN_ANOMALY":260.4806,"EPHEMERIS_TYPE":0,"CLASSIFICATION_TYPE":"U","NORAD_CAT_ID":59382,"ELEMENT_SET_NO":999,"REV_AT_EPOCH":11072,"BSTAR":-1.3978e-6,"MEAN_MOTION_DOT":-4.0e-6,"MEAN_MOTION_DDOT":0},{"OBJECT_NAME":"STARLINK-31715","OBJECT_ID":"2024-062L","EPOCH":"2026-03-16T19:33:14.667840","MEAN_MOTION":15.30197891,"ECCENTRICITY":0.0001062,"INCLINATION":53.1607,"RA_OF_ASC_NODE":222.4732,"ARG_OF_PERICENTER":77.6899,"MEAN_ANOMALY":282.4221,"EPHEMERIS_TYPE":0,"CLASSIFICATION_TYPE":"U","NORAD_CAT_ID":59384,"ELEMENT_SET_NO":999,"REV_AT_EPOCH":11076,"BSTAR":4.5344e-5,"MEAN_MOTION_DOT":9.84e-6,"MEAN_MOTION_DDOT":0},{"OBJECT_NAME":"STARLINK-31717","OBJECT_ID":"2024-062M","EPOCH":"2026-03-16T20:11:15.448128","MEAN_MOTION":15.30190835,"ECCENTRICITY":3.79e-5,"INCLINATION":53.1587,"RA_OF_ASC_NODE":222.6331,"ARG_OF_PERICENTER":130.6158,"MEAN_ANOMALY":229.4876,"EPHEMERIS_TYPE":0,"CLASSIFICATION_TYPE":"U","NORAD_CAT_ID":59385,"ELEMENT_SET_NO":999,"REV_AT_EPOCH":11075,"BSTAR":6.3522e-5,"MEAN_MOTION_DOT":1.523e-5,"MEAN_MOTION_DDOT":0},{"OBJECT_NAME":"STARLINK-31688","OBJECT_ID":"2024-062N","EPOCH":"2026-03-16T19:22:01.158240","MEAN_MOTION":15.30183086,"ECCENTRICITY":0.0001313,"INCLINATION":53.1595,"RA_OF_ASC_NODE":225.2642,"ARG_OF_PERICENTER":92.922,"MEAN_ANOMALY":267.1931,"EPHEMERIS_TYPE":0,"CLASSIFICATION_TYPE":"U","NORAD_CAT_ID":59386,"ELEMENT_SET_NO":999,"REV_AT_EPOCH":11068,"BSTAR":8.1298e-5,"MEAN_MOTION_DOT":2.048e-5,"MEAN_MOTION_DDOT":0},{"OBJECT_NAME":"STARLINK-31714","OBJECT_ID":"2024-062P","EPOCH":"2026-03-16T20:15:48.084192","MEAN_MOTION":15.30192369,"ECCENTRICITY":0.0001322,"INCLINATION":53.1587,"RA_OF_ASC_NODE":222.6533,"ARG_OF_PERICENTER":95.7969,"MEAN_ANOMALY":264.3183,"EPHEMERIS_TYPE":0,"CLASSIFICATION_TYPE":"U","NORAD_CAT_ID":59387,"ELEMENT_SET_NO":999,"REV_AT_EPOCH":11071,"BSTAR":2.4581e-5,"MEAN_MOTION_DOT":3.69e-6,"MEAN_MOTION_DDOT":0},{"OBJECT_NAME":"STARLINK-31643","OBJECT_ID":"2024-062Q","EPOCH":"2026-03-16T16:58:34.271040","MEAN_MOTION":15.30195892,"ECCENTRICITY":0.000121,"INCLINATION":53.1612,"RA_OF_ASC_NODE":223.2208,"ARG_OF_PERICENTER":89.0829,"MEAN_ANOMALY":271.031,"EPHEMERIS_TYPE":0,"CLASSIFICATION_TYPE":"U","NORAD_CAT_ID":59388,"ELEMENT_SET_NO":999,"REV_AT_EPOCH":11074,"BSTAR":2.4946e-5,"MEAN_MOTION_DOT":3.8e-6,"MEAN_MOTION_DDOT":0},{"OBJECT_NAME":"STARLINK-31647","OBJECT_ID":"2024-062R","EPOCH":"2026-03-16T03:08:48.950304","MEAN_MOTION":15.30177216,"ECCENTRICITY":8.286e-5,"INCLINATION":53.1581,"RA_OF_ASC_NODE":226.0556,"ARG_OF_PERICENTER":77.5615,"MEAN_ANOMALY":282.5478,"EPHEMERIS_TYPE":0,"CLASSIFICATION_TYPE":"U","NORAD_CAT_ID":59389,"ELEMENT_SET_NO":999,"REV_AT_EPOCH":11065,"BSTAR":0.00014024538,"MEAN_MOTION_DOT":3.794e-5,"MEAN_MOTION_DDOT":0},{"OBJECT_NAME":"STARLINK-31649","OBJECT_ID":"2024-062S","EPOCH":"2026-03-16T16:43:22.635264","MEAN_MOTION":15.30199213,"ECCENTRICITY":9.34e-5,"INCLINATION":53.16,"RA_OF_ASC_NODE":223.1549,"ARG_OF_PERICENTER":81.2158,"MEAN_ANOMALY":278.8949,"EPHEMERIS_TYPE":0,"CLASSIFICATION_TYPE":"U","NORAD_CAT_ID":59390,"ELEMENT_SET_NO":999,"REV_AT_EPOCH":11074,"BSTAR":9.1135e-6,"MEAN_MOTION_DOT":-8.9e-7,"MEAN_MOTION_DDOT":0}]
