STARLINK-31461          
1 59370U 24060Y   26075.72240757 -.00002519  00000+0 -82141-4 0  9998
2 59370  42.9981 209.2999 0000543 268.5485  91.5305 15.27551177111208
STARLINK-31641          
1 59374U 24062A   26074.71349841 -.00000961  00000+0 -20355-4 0  9994
2 59374  53.1609 230.5311 0001089  82.4320 277.6805 15.30186123110542
STARLINK-31430          
1 59375U 24062B   26075.68582843 -.00001483  00000+0 -37989-4 0  9994
2 59375  53.1604 225.9303 0001168  79.3516 280.7616 15.30181838110708
STARLINK-31695          
1 59376U 24062C   26075.82425140  .00000626  00000+0  33261-4 0  9992
2 59376  53.1608 222.5311 0001092  74.7625 285.3496 15.30201639110722
STARLINK-31716          
1 59377U 24062D   26075.66039230  .00000365  00000+0  24468-4 0  9995
2 59377  53.1600 174.6379 0001181 104.2452 255.8680 15.30194413111372
STARLINK-31710          
1 59378U 24062E   26075.70418304 -.00002593  00000+0 -75488-4 0  9999
2 59378  53.1605 223.2024 0000975  87.0238 273.0875 15.30183669110701
STARLINK-31698          
1 59379U 24062F   26075.82108946  .00000736  00000+0  36969-4 0  9997
2 59379  53.1617 222.5235 0001095  71.9868 288.1252 15.30195906110721
STARLINK-31680          
1 59380U 24062G   26075.69215315  .00000063  00000+0  14260-4 0  9996
2 59380  53.1612 225.9677 0000928  69.6590 290.4511 15.30199353110662
STARLINK-31713          
1 59381U 24062H   26075.67948983 -.00000527  00000+0 -56686-5 0  9995
2 59381  53.1597 225.8919 0001034  82.2640 277.8478 15.30199234110668
STARLINK-31705          
1 59382U 24062J   26075.83164282 -.00000400  00000+0 -13978-5 0  9993
2 59382  53.1589 222.5755 0000968  99.6304 260.4806 15.30192070110727
STARLINK-31715          
1 59384U 24062L   26075.81475310  .00000984  00000+0  45344-4 0  9996
2 59384  53.1607 222.4732 0001062  77.6899 282.4221 15.30197891110760
STARLINK-31717          
1 59385U 24062M   26075.84115102  .00001523  00000+0  63522-4 0  9998
2 59385  53.1587 222.6331 0000379 130.6158 229.4876 15.30190835110750
STARLINK-31688          
1 59386U 24062N   26075.80695785  .00002048  00000+0  81298-4 0  9998
2 59386  53.1595 225.2642 0001313  92.9220 267.1931 15.30183086110686
STARLINK-31714          
1 59387U 24062P   26075.84430653  .00000369  00000+0  24581-4 0  9990
2 59387  53.1587 222.6533 0001322  95.7969 264.3183 15.30192369110715
STARLINK-31643          
1 59388U 24062Q   26075.70734110  .00000380  00000+0  24946-4 0  9999
2 59388  53.1612 223.2208 0001210  89.0829 271.0310 15.30195892110742
STARLINK-31647          
1 59389U 24062R   26075.13112211  .00003794  00000+0  14025-3 0  9997
2 59389  53.1581 226.0556 0000828  77.5615 282.5478 15.30177216110656
STARLINK-31649          
1 59390U 24062S   26075.69678976 -.00000089  00000+0  91135-5 0  9999
2 59390  53.1600 223.1549 0000934  81.2158 278.8949 15.30199213110744
